{"fetched_at":"2026-07-13T18:16:29.920Z","source":"https://celestrak.org/NORAD/elements/gp.php?GROUP=kuiper&FORMAT=JSON","constellation":"kuiper","records":[{"OBJECT_NAME":"KUIPER-00191","OBJECT_ID":"2025-301L","EPOCH":"2026-07-13T10:12:22.203936","CLASSIFICATION_TYPE":"U","MEAN_MOTION":14.79940297,"ECCENTRICITY":0.0000302,"INCLINATION":51.9002,"RA_OF_ASC_NODE":237.1467,"ARG_OF_PERICENTER":82.1951,"MEAN_ANOMALY":277.9046,"EPHEMERIS_TYPE":0,"NORAD_CAT_ID":67143,"ELEMENT_SET_NO":999,"REV_AT_EPOCH":3227,"BSTAR":0.00018485,"MEAN_MOTION_DOT":0.00001189,"MEAN_MOTION_DDOT":0},{"OBJECT_NAME":"KUIPER-00196","OBJECT_ID":"2025-301M","EPOCH":"2026-07-13T10:17:23.288064","CLASSIFICATION_TYPE":"U","MEAN_MOTION":14.76345342,"ECCENTRICITY":0.000114,"INCLINATION":51.8976,"RA_OF_ASC_NODE":193.4681,"ARG_OF_PERICENTER":347.6537,"MEAN_ANOMALY":12.4395,"EPHEMERIS_TYPE":0,"NORAD_CAT_ID":67144,"ELEMENT_SET_NO":999,"REV_AT_EPOCH":3285,"BSTAR":0.00016589,"MEAN_MOTION_DOT":0.00000948,"MEAN_MOTION_DDOT":0},{"OBJECT_NAME":"KUIPER-00204","OBJECT_ID":"2025-301N","EPOCH":"2026-07-13T10:06:28.142784","CLASSIFICATION_TYPE":"U","MEAN_MOTION":14.79928224,"ECCENTRICITY":0.0000341,"INCLINATION":51.9007,"RA_OF_ASC_NODE":209.649,"ARG_OF_PERICENTER":18.7496,"MEAN_ANOMALY":341.3479,"EPHEMERIS_TYPE":0,"NORAD_CAT_ID":67145,"ELEMENT_SET_NO":999,"REV_AT_EPOCH":3274,"BSTAR":0.00016916,"MEAN_MOTION_DOT":0.00001069,"MEAN_MOTION_DDOT":0},{"OBJECT_NAME":"KUIPER-00210","OBJECT_ID":"2025-301P","EPOCH":"2026-07-13T11:01:00.935904","CLASSIFICATION_TYPE":"U","MEAN_MOTION":14.79933581,"ECCENTRICITY":0.0000503,"INCLINATION":51.8998,"RA_OF_ASC_NODE":236.9506,"ARG_OF_PERICENTER":74.9484,"MEAN_ANOMALY":285.1534,"EPHEMERIS_TYPE":0,"NORAD_CAT_ID":67146,"ELEMENT_SET_NO":999,"REV_AT_EPOCH":3242,"BSTAR":0.00020663,"MEAN_MOTION_DOT":0.00001354,"MEAN_MOTION_DDOT":0},{"OBJECT_NAME":"KUIPER-00221","OBJECT_ID":"2025-301Q","EPOCH":"2026-07-13T11:37:58.168992","CLASSIFICATION_TYPE":"U","MEAN_MOTION":14.79928377,"ECCENTRICITY":0.0000468,"INCLINATION":51.9017,"RA_OF_ASC_NODE":244.3614,"ARG_OF_PERICENTER":76.4413,"MEAN_ANOMALY":283.6602,"EPHEMERIS_TYPE":0,"NORAD_CAT_ID":67147,"ELEMENT_SET_NO":999,"REV_AT_EPOCH":3215,"BSTAR":0.000093051,"MEAN_MOTION_DOT":0.00000488,"MEAN_MOTION_DDOT":0},{"OBJECT_NAME":"KUIPER-00232","OBJECT_ID":"2025-301R","EPOCH":"2026-07-13T11:12:37.935072","CLASSIFICATION_TYPE":"U","MEAN_MOTION":14.79941256,"ECCENTRICITY":0.0000313,"INCLINATION":51.8982,"RA_OF_ASC_NODE":229.463,"ARG_OF_PERICENTER":77.6734,"MEAN_ANOMALY":282.4263,"EPHEMERIS_TYPE":0,"NORAD_CAT_ID":67148,"ELEMENT_SET_NO":999,"REV_AT_EPOCH":3235,"BSTAR":0.00019393,"MEAN_MOTION_DOT":0.00001258,"MEAN_MOTION_DDOT":0},{"OBJECT_NAME":"KUIPER-00241","OBJECT_ID":"2025-301S","EPOCH":"2026-07-13T12:00:00.998784","CLASSIFICATION_TYPE":"U","MEAN_MOTION":14.79917991,"ECCENTRICITY":0.0000488,"INCLINATION":51.9015,"RA_OF_ASC_NODE":239.3179,"ARG_OF_PERICENTER":69.4682,"MEAN_ANOMALY":343.665,"EPHEMERIS_TYPE":0,"NORAD_CAT_ID":67149,"ELEMENT_SET_NO":999,"REV_AT_EPOCH":403,"BSTAR":0.0020714,"MEAN_MOTION_DOT":0.00015601,"MEAN_MOTION_DDOT":0},{"OBJECT_NAME":"KUIPER-00245","OBJECT_ID":"2025-301T","EPOCH":"2026-07-13T11:34:05.149056","CLASSIFICATION_TYPE":"U","MEAN_MOTION":14.79921281,"ECCENTRICITY":0.000043,"INCLINATION":51.9025,"RA_OF_ASC_NODE":246.9066,"ARG_OF_PERICENTER":98.5429,"MEAN_ANOMALY":261.5582,"EPHEMERIS_TYPE":0,"NORAD_CAT_ID":67150,"ELEMENT_SET_NO":999,"REV_AT_EPOCH":3211,"BSTAR":0.0002014,"MEAN_MOTION_DOT":0.00001314,"MEAN_MOTION_DDOT":0},{"OBJECT_NAME":"KUIPER-00246","OBJECT_ID":"2025-301U","EPOCH":"2026-07-13T09:31:32.263680","CLASSIFICATION_TYPE":"U","MEAN_MOTION":14.79933082,"ECCENTRICITY":0.0000497,"INCLINATION":51.8994,"RA_OF_ASC_NODE":232.2353,"ARG_OF_PERICENTER":95.7984,"MEAN_ANOMALY":264.3035,"EPHEMERIS_TYPE":0,"NORAD_CAT_ID":67151,"ELEMENT_SET_NO":999,"REV_AT_EPOCH":3233,"BSTAR":0.00019329,"MEAN_MOTION_DOT":0.00001253,"MEAN_MOTION_DDOT":0},{"OBJECT_NAME":"KUIPER-00247","OBJECT_ID":"2025-301V","EPOCH":"2026-07-13T03:18:06.139584","CLASSIFICATION_TYPE":"U","MEAN_MOTION":14.79926772,"ECCENTRICITY":0.00005394,"INCLINATION":51.8953,"RA_OF_ASC_NODE":223.3539,"ARG_OF_PERICENTER":89.9857,"MEAN_ANOMALY":270.1167,"EPHEMERIS_TYPE":0,"NORAD_CAT_ID":67152,"ELEMENT_SET_NO":999,"REV_AT_EPOCH":3241,"BSTAR":0.00019398497,"MEAN_MOTION_DOT":0.00001258,"MEAN_MOTION_DDOT":0},{"OBJECT_NAME":"KUIPER-00248","OBJECT_ID":"2025-301W","EPOCH":"2026-07-12T09:55:31.215936","CLASSIFICATION_TYPE":"U","MEAN_MOTION":14.79984947,"ECCENTRICITY":0.00008142,"INCLINATION":51.8967,"RA_OF_ASC_NODE":209.1835,"ARG_OF_PERICENTER":73.8732,"MEAN_ANOMALY":286.232,"EPHEMERIS_TYPE":0,"NORAD_CAT_ID":67153,"ELEMENT_SET_NO":999,"REV_AT_EPOCH":3271,"BSTAR":0.00065144844,"MEAN_MOTION_DOT":0.00004755,"MEAN_MOTION_DDOT":0},{"OBJECT_NAME":"KUIPER-00249","OBJECT_ID":"2025-301X","EPOCH":"2026-07-13T09:50:56.215968","CLASSIFICATION_TYPE":"U","MEAN_MOTION":14.79938052,"ECCENTRICITY":0.0000407,"INCLINATION":51.8989,"RA_OF_ASC_NODE":219.7058,"ARG_OF_PERICENTER":74.3589,"MEAN_ANOMALY":285.7418,"EPHEMERIS_TYPE":0,"NORAD_CAT_ID":67154,"ELEMENT_SET_NO":999,"REV_AT_EPOCH":3248,"BSTAR":0.00016859,"MEAN_MOTION_DOT":0.00001065,"MEAN_MOTION_DDOT":0},{"OBJECT_NAME":"KUIPER-00250","OBJECT_ID":"2025-301Y","EPOCH":"2026-07-13T11:53:29.461632","CLASSIFICATION_TYPE":"U","MEAN_MOTION":14.79924421,"ECCENTRICITY":0.00005,"INCLINATION":51.8982,"RA_OF_ASC_NODE":234.2834,"ARG_OF_PERICENTER":94.2568,"MEAN_ANOMALY":265.8451,"EPHEMERIS_TYPE":0,"NORAD_CAT_ID":67155,"ELEMENT_SET_NO":999,"REV_AT_EPOCH":3232,"BSTAR":0.000052546,"MEAN_MOTION_DOT":0.00000179,"MEAN_MOTION_DDOT":0},{"OBJECT_NAME":"KUIPER-00251","OBJECT_ID":"2025-301Z","EPOCH":"2026-07-13T10:35:43.135872","CLASSIFICATION_TYPE":"U","MEAN_MOTION":14.79927428,"ECCENTRICITY":0.0000302,"INCLINATION":51.8999,"RA_OF_ASC_NODE":222.0896,"ARG_OF_PERICENTER":52.0719,"MEAN_ANOMALY":308.0271,"EPHEMERIS_TYPE":0,"NORAD_CAT_ID":67156,"ELEMENT_SET_NO":999,"REV_AT_EPOCH":3264,"BSTAR":0.00017297,"MEAN_MOTION_DOT":0.00001098,"MEAN_MOTION_DDOT":0},{"OBJECT_NAME":"KUIPER-00252","OBJECT_ID":"2025-301AA","EPOCH":"2026-07-12T10:13:10.384032","CLASSIFICATION_TYPE":"U","MEAN_MOTION":14.79926164,"ECCENTRICITY":0.00005114,"INCLINATION":51.8987,"RA_OF_ASC_NODE":229.032,"ARG_OF_PERICENTER":95.0951,"MEAN_ANOMALY":265.007,"EPHEMERIS_TYPE":0,"NORAD_CAT_ID":67157,"ELEMENT_SET_NO":999,"REV_AT_EPOCH":3227,"BSTAR":0.000093583702,"MEAN_MOTION_DOT":0.00000492,"MEAN_MOTION_DDOT":0},{"OBJECT_NAME":"KUIPER-00261","OBJECT_ID":"2025-301AB","EPOCH":"2026-07-13T07:50:24.555840","CLASSIFICATION_TYPE":"U","MEAN_MOTION":14.79936667,"ECCENTRICITY":0.0000439,"INCLINATION":51.9011,"RA_OF_ASC_NODE":235.1014,"ARG_OF_PERICENTER":92.1981,"MEAN_ANOMALY":267.9032,"EPHEMERIS_TYPE":0,"NORAD_CAT_ID":67158,"ELEMENT_SET_NO":999,"REV_AT_EPOCH":3226,"BSTAR":0.00018878,"MEAN_MOTION_DOT":0.00001218,"MEAN_MOTION_DDOT":0}]}
