KUIPER-00191            
1 67143U 25301L   26194.42525699  .00001189  00000+0  18485-3 0  9993
2 67143  51.9002 237.1467 0000302  82.1951 277.9046 14.79940297 32272
KUIPER-00196            
1 67144U 25301M   26194.42874176  .00000948  00000+0  16589-3 0  9996
2 67144  51.8976 193.4681 0001140 347.6537  12.4395 14.76345342 32854
KUIPER-00204            
1 67145U 25301N   26194.42115906  .00001069  00000+0  16916-3 0  9995
2 67145  51.9007 209.6490 0000341  18.7496 341.3479 14.79928224 32745
KUIPER-00210            
1 67146U 25301P   26194.45903861  .00001354  00000+0  20663-3 0  9995
2 67146  51.8998 236.9506 0000503  74.9484 285.1534 14.79933581 32420
KUIPER-00221            
1 67147U 25301Q   26194.48470103  .00000488  00000+0  93051-4 0  9996
2 67147  51.9017 244.3614 0000468  76.4413 283.6602 14.79928377 32152
KUIPER-00232            
1 67148U 25301R   26194.46710573  .00001258  00000+0  19393-3 0  9995
2 67148  51.8982 229.4630 0000313  77.6734 282.4263 14.79941256 32356
KUIPER-00241            
1 67149U 25301S   26194.50001156  .00015601  00000+0  20714-2 0  9996
2 67149  51.9015 239.3179 0000488  69.4682 343.6650 14.79917991  4030
KUIPER-00245            
1 67150U 25301T   26194.48200404  .00001314  00000+0  20140-3 0  9992
2 67150  51.9025 246.9066 0000430  98.5429 261.5582 14.79921281 32110
KUIPER-00246            
1 67151U 25301U   26194.39690120  .00001253  00000+0  19329-3 0  9990
2 67151  51.8994 232.2353 0000497  95.7984 264.3035 14.79933082 32330
KUIPER-00247            
1 67152U 25301V   26194.13757106  .00001258  00000+0  19398-3 0  9992
2 67152  51.8953 223.3539 0000539  89.9857 270.1167 14.79926772 32412
KUIPER-00248            
1 67153U 25301W   26193.41355574  .00004755  00000+0  65145-3 0  9992
2 67153  51.8967 209.1835 0000814  73.8732 286.2320 14.79984947 32719
KUIPER-00249            
1 67154U 25301X   26194.41037287  .00001065  00000+0  16859-3 0  9991
2 67154  51.8989 219.7058 0000407  74.3589 285.7418 14.79938052 32484
KUIPER-00250            
1 67155U 25301Y   26194.49547988  .00000179  00000+0  52546-4 0  9993
2 67155  51.8982 234.2834 0000500  94.2568 265.8451 14.79924421 32328
KUIPER-00251            
1 67156U 25301Z   26194.44147148  .00001098  00000+0  17297-3 0  9997
2 67156  51.8999 222.0896 0000302  52.0719 308.0271 14.79927428 32645
KUIPER-00252            
1 67157U 25301AA  26193.42581463  .00000492  00000+0  93584-4 0  9998
2 67157  51.8987 229.0320 0000511  95.0951 265.0070 14.79926164 32273
KUIPER-00261            
1 67158U 25301AB  26194.32667310  .00001218  00000+0  18878-3 0  9994
2 67158  51.9011 235.1014 0000439  92.1981 267.9032 14.79936667 32268
